COSMOS 2425 (716)       
1 29670U 06062A   21232.30882833  .00000075  00000-0  00000-0 0  9995
2 29670  64.8284 253.2911 0024103 340.3034 201.6643  2.13114699114035
COSMOS 2433 (720)       
1 32275U 07052A   21232.10590971 -.00000073  00000-0  00000-0 0  9996
2 32275  66.0718  14.6718 0002384 185.9742  10.8615  2.13104314107546
COSMOS 2432 (719)       
1 32276U 07052B   21232.30679189 -.00000074  00000-0  00000-0 0  9999
2 32276  66.0844  14.7609 0007783 338.0318 322.0437  2.13103558107544
COSMOS 2434 (721)       
1 32393U 07065A   21232.44987582  .00000072  00000-0  00000-0 0  9994
2 32393  64.4459 251.7158 0001184 166.8826 182.4124  2.13103136106250
COSMOS 2436 (723)       
1 32395U 07065C   21232.26882275  .00000075  00000-0  00000-0 0  9992
2 32395  64.4550 251.7768 0013981 349.9992 356.4714  2.13103025106184
COSMOS 2456 (730)       
1 36111U 09070A   21232.47533300 -.00000018  00000-0  00000-0 0  9993
2 36111  64.2864 131.3866 0004092 317.8421 220.6928  2.13099447 90921
COSMOS 2457 (733)       
1 36112U 09070B   21232.36819236 -.00000019  00000-0  00000-0 0  9998
2 36112  64.2685 131.2712 0004714 166.2876  54.9463  2.13101650 90925
COSMOS 2459 (731)       
1 36400U 10007A   21232.24456815 -.00000075  00000-0  00000-0 0  9999
2 36400  65.9675  13.5833 0024978 351.8692 169.8548  2.13108691 89267
COSMOS 2461 (735)       
1 36401U 10007B   21232.24638991 -.00000075  00000-0  00000-0 0  9997
2 36401  65.9624  13.5481 0019129  13.9511 148.5093  2.13103739 89277
COSMOS 2460 (732)       
1 36402U 10007C   21232.51252106 -.00000076  00000-0  00000-0 0  9999
2 36402  65.9490  13.4940 0002586 115.9317 196.1415  2.13106601 89272
COSMOS 2464 (736)       
1 37139U 10041C   21232.28092424  .00000074  00000-0  00000-0 0  9991
2 37139  64.0457 250.9461 0026499   5.7848  74.3376  2.13100824 85330
COSMOS 2471 (701K)      
1 37372U 11009A   21232.15215619 -.00000075  00000-0  00000-0 0  9996
2 37372  65.9440  13.4358 0015238 224.4108 310.0698  2.13062212 81540
COSMOS 2476 (744)       
1 37867U 11064A   21232.55990697 -.00000017  00000-0  00000-0 0  9992
2 37867  64.5794 132.6215 0020626 237.5897 268.7148  2.13101941 76275
COSMOS 2477 (745)       
1 37868U 11064B   21232.36743377 -.00000019  00000-0  00000-0 0  9995
2 37868  64.5872 132.6892 0018219 239.0468 297.8966  2.13101885 76223
COSMOS 2475 (743)       
1 37869U 11064C   21232.36571039 -.00000019  00000-0  00000-0 0  9990
2 37869  64.5953 132.6936 0022197 258.1905 235.1917  2.13102216 76232
COSMOS 2485 (747)       
1 39155U 13019A   21232.56214308 -.00000017  00000-0  00000-0 0  9995
2 39155  64.7466 132.9842 0021199 233.5952 318.8972  2.13102131 64741
COSMOS 2492 (754)       
1 39620U 14012A   21232.23850486 -.00000076  00000-0  00000-0 0  9998
2 39620  65.8375  13.2283 0010908 329.5203   9.4265  2.13103308 57680
COSMOS 2500 (755)       
1 40001U 14032A   21232.17831936 -.00000075  00000-0  00000-0 0  9996
2 40001  65.7777  13.1123 0007088 182.8931 329.3670  2.13102504 55909
COSMOS 2501 (702K)      
1 40315U 14075A   21232.16381243  .00000074  00000-0  00000-0 0  9999
2 40315  63.7563 251.7342 0018904 213.0188  94.7352  2.13101448 52308
COSMOS 2514 (751)       
1 41330U 16008A   21232.16276991 -.00000076  00000-0  00000-0 0  9991
2 41330  65.5789  12.8793 0010141 199.4647 124.1170  2.13102884 43068
COSMOS 2516 (753)       
1 41554U 16032A   21232.29563870  .00000073  00000-0  00000-0 0  9991
2 41554  63.9818 251.9211 0015831 221.1418 101.0105  2.13107287 40670
COSMOS 2522 (752)       
1 42939U 17055A   21232.58751343  .00000070  00000-0  00000-0 0  9998
2 42939  64.2150 252.2154 0010060 244.6860 163.2001  2.13102024 30444
COSMOS 2527 (756)       
1 43508U 18053A   21232.29130000 -.00000020  00000-0  00000-0 0  9995
2 43508  64.9102 132.9305 0007834 233.9065 338.8501  2.13102628 24725
COSMOS 2529 (757)       
1 43687U 18086A   21232.27298981  .00000074  00000-0  00000-0 0  9998
2 43687  64.4297 252.4633 0011990 264.0944 218.0692  2.13102205 21744
COSMOS 2534 (758)       
1 44299U 19030A   21232.32906575  .00000074  00000-0  00000-0 0  9999
2 44299  64.5003 252.3189 0014559 281.7971  18.1884  2.13102061 17382
COSMOS 2544 (759)       
1 44850U 19088A   21232.59431434 -.00000017  00000-0  00000-0 0  9999
2 44850  64.8933 132.7794 0012135 262.8887 226.0304  2.13102339 13164
COSMOS 2545 (760)       
1 45358U 20018A   21232.15227381 -.00000076  00000-0  00000-0 0  9999
2 45358  64.9133  13.7361 0007616 234.9300 124.8008  2.13102697 11102
